{
  "type": "FeatureCollection",
  "features": [
    {
      "type": "Feature",
      "properties": {
        "norad_id": 15362,
        "name": "NOVA 3",
        "group": "nnss",
        "lat": 74.02772283355246,
        "lon": 80.19263731369364,
        "alt_km": 1178.3544175886627,
        "timestamp": "2025-12-19T22:41:52.660335+00:00",
        "meta_object_name": "NOVA 3",
        "meta_object_id": "1984-110A",
        "meta_epoch": "2025-12-19T11:29:40.293312",
        "meta_mean_motion": 13.23045275,
        "meta_eccentricity": 0.0030034,
        "meta_inclination": 90.1221,
        "meta_ra_of_asc_node": 80.614,
        "meta_arg_of_pericenter": 312.622,
        "meta_mean_anomaly": 59.034,
        "meta_ephemeris_type": 0,
        "meta_classification_type": "U",
        "meta_norad_cat_id": 15362,
        "meta_element_set_no": 999,
        "meta_rev_at_epoch": 98788,
        "meta_bstar": 9.0213e-05,
        "meta_mean_motion_dot": 4.6e-07,
        "meta_mean_motion_ddot": 0,
        "tle_line1": "1 15362U 84110A   25353.47893858  .00000046  00000+0  90213-4 0  9999",
        "tle_line2": "2 15362  90.1221  80.6140 0030034 312.6220  59.0340 13.23045275987882"
      },
      "geometry": {
        "type": "Point",
        "coordinates": [
          80.19263731369364,
          74.02772283355246
        ]
      }
    },
    {
      "type": "Feature",
      "properties": {
        "norad_id": 15935,
        "name": "OSCAR 30",
        "group": "nnss",
        "lat": 45.91912404359436,
        "lon": -79.86388940636427,
        "alt_km": 1075.1182702400065,
        "timestamp": "2025-12-19T22:41:52.660346+00:00",
        "meta_object_name": "OSCAR 30",
        "meta_object_id": "1985-066A",
        "meta_epoch": "2025-12-19T13:06:55.636128",
        "meta_mean_motion": 13.3607924,
        "meta_eccentricity": 0.0169224,
        "meta_inclination": 90.1656,
        "meta_ra_of_asc_node": 99.9585,
        "meta_arg_of_pericenter": 64.9065,
        "meta_mean_anomaly": 307.9619,
        "meta_ephemeris_type": 0,
        "meta_classification_type": "U",
        "meta_norad_cat_id": 15935,
        "meta_element_set_no": 999,
        "meta_rev_at_epoch": 96544,
        "meta_bstar": 9.8407e-05,
        "meta_mean_motion_dot": 6.5e-07,
        "meta_mean_motion_ddot": 0,
        "tle_line1": "1 15935U 85066A   25353.54647727  .00000065  00000+0  98407-4 0  9990",
        "tle_line2": "2 15935  90.1656  99.9585 0169224  64.9065 307.9619 13.36079240965449"
      },
      "geometry": {
        "type": "Point",
        "coordinates": [
          -79.86388940636427,
          45.91912404359436
        ]
      }
    },
    {
      "type": "Feature",
      "properties": {
        "norad_id": 15936,
        "name": "OSCAR 24",
        "group": "nnss",
        "lat": -25.336321110237495,
        "lon": -87.65207002312144,
        "alt_km": 1219.3829143582134,
        "timestamp": "2025-12-19T22:41:52.660356+00:00",
        "meta_object_name": "OSCAR 24",
        "meta_object_id": "1985-066B",
        "meta_epoch": "2025-12-19T05:39:09.151776",
        "meta_mean_motion": 13.35936599,
        "meta_eccentricity": 0.0170373,
        "meta_inclination": 90.1792,
        "meta_ra_of_asc_node": 92.4203,
        "meta_arg_of_pericenter": 72.2157,
        "meta_mean_anomaly": 317.8855,
        "meta_ephemeris_type": 0,
        "meta_classification_type": "U",
        "meta_norad_cat_id": 15936,
        "meta_element_set_no": 999,
        "meta_rev_at_epoch": 96730,
        "meta_bstar": 9.8904e-05,
        "meta_mean_motion_dot": 6.5e-07,
        "meta_mean_motion_ddot": 0,
        "tle_line1": "1 15936U 85066B   25353.23552259  .00000065  00000+0  98904-4 0  9994",
        "tle_line2": "2 15936  90.1792  92.4203 0170373  72.2157 317.8855 13.35936599967304"
      },
      "geometry": {
        "type": "Point",
        "coordinates": [
          -87.65207002312144,
          -25.336321110237495
        ]
      }
    },
    {
      "type": "Feature",
      "properties": {
        "norad_id": 17070,
        "name": "POLAR BEAR",
        "group": "nnss",
        "lat": -22.154782567826405,
        "lon": -176.67097740462305,
        "alt_km": 1001.4640033101332,
        "timestamp": "2025-12-19T22:41:52.660367+00:00",
        "meta_object_name": "POLAR BEAR",
        "meta_object_id": "1986-088A",
        "meta_epoch": "2025-12-19T10:53:24.401760",
        "meta_mean_motion": 13.75252169,
        "meta_eccentricity": 0.00412501,
        "meta_inclination": 89.617,
        "meta_ra_of_asc_node": 183.5049,
        "meta_arg_of_pericenter": 99.9087,
        "meta_mean_anomaly": 324.1249,
        "meta_ephemeris_type": 0,
        "meta_classification_type": "U",
        "meta_norad_cat_id": 17070,
        "meta_element_set_no": 999,
        "meta_rev_at_epoch": 96071,
        "meta_bstar": 9.9748716e-05,
        "meta_mean_motion_dot": 1.08e-06,
        "meta_mean_motion_ddot": 0,
        "tle_line1": "1 17070U 86088A   25353.45375465  .00000108  00000+0  99749-4 0  9992",
        "tle_line2": "2 17070  89.6170 183.5049 0041250  99.9087 324.1249 13.75252169960711"
      },
      "geometry": {
        "type": "Point",
        "coordinates": [
          -176.67097740462305,
          -22.154782567826405
        ]
      }
    },
    {
      "type": "Feature",
      "properties": {
        "norad_id": 18361,
        "name": "OSCAR 27",
        "group": "nnss",
        "lat": 10.813685192418301,
        "lon": -100.38657927359371,
        "alt_km": 1028.1190424376227,
        "timestamp": "2025-12-19T22:41:52.660377+00:00",
        "meta_object_name": "OSCAR 27",
        "meta_object_id": "1987-080A",
        "meta_epoch": "2025-12-19T12:55:35.147136",
        "meta_mean_motion": 13.44908026,
        "meta_eccentricity": 0.010346,
        "meta_inclination": 90.3741,
        "meta_ra_of_asc_node": 79.5267,
        "meta_arg_of_pericenter": 204.1781,
        "meta_mean_anomaly": 155.4493,
        "meta_ephemeris_type": 0,
        "meta_classification_type": "U",
        "meta_norad_cat_id": 18361,
        "meta_element_set_no": 999,
        "meta_rev_at_epoch": 87648,
        "meta_bstar": 0.00015116,
        "meta_mean_motion_dot": 1e-06,
        "meta_mean_motion_ddot": 0,
        "tle_line1": "1 18361U 87080A   25353.53860124  .00000100  00000+0  15116-3 0  9996",
        "tle_line2": "2 18361  90.3741  79.5267 0103460 204.1781 155.4493 13.44908026876489"
      },
      "geometry": {
        "type": "Point",
        "coordinates": [
          -100.38657927359371,
          10.813685192418301
        ]
      }
    },
    {
      "type": "Feature",
      "properties": {
        "norad_id": 18362,
        "name": "OSCAR 29",
        "group": "nnss",
        "lat": 10.837860467863694,
        "lon": -99.92685191019629,
        "alt_km": 1051.4123504838672,
        "timestamp": "2025-12-19T22:41:52.660388+00:00",
        "meta_object_name": "OSCAR 29",
        "meta_object_id": "1987-080B",
        "meta_epoch": "2025-12-19T12:58:39.035712",
        "meta_mean_motion": 13.44449557,
        "meta_eccentricity": 0.010432,
        "meta_inclination": 90.3752,
        "meta_ra_of_asc_node": 79.9861,
        "meta_arg_of_pericenter": 227.4328,
        "meta_mean_anomaly": 143.48,
        "meta_ephemeris_type": 0,
        "meta_classification_type": "U",
        "meta_norad_cat_id": 18362,
        "meta_element_set_no": 999,
        "meta_rev_at_epoch": 87601,
        "meta_bstar": 0.00013403,
        "meta_mean_motion_dot": 8.8e-07,
        "meta_mean_motion_ddot": 0,
        "tle_line1": "1 18362U 87080B   25353.54072958  .00000088  00000+0  13403-3 0  9990",
        "tle_line2": "2 18362  90.3752  79.9861 0104320 227.4328 143.4800 13.44449557876014"
      },
      "geometry": {
        "type": "Point",
        "coordinates": [
          -99.92685191019629,
          10.837860467863694
        ]
      }
    },
    {
      "type": "Feature",
      "properties": {
        "norad_id": 19070,
        "name": "OSCAR 23",
        "group": "nnss",
        "lat": -55.94670832945128,
        "lon": -163.85869450476267,
        "alt_km": 1124.9634878105726,
        "timestamp": "2025-12-19T22:41:52.660398+00:00",
        "meta_object_name": "OSCAR 23",
        "meta_object_id": "1988-033A",
        "meta_epoch": "2025-12-19T08:55:44.598144",
        "meta_mean_motion": 13.27788274,
        "meta_eccentricity": 0.0190075,
        "meta_inclination": 90.3206,
        "meta_ra_of_asc_node": 16.5981,
        "meta_arg_of_pericenter": 161.505,
        "meta_mean_anomaly": 211.5355,
        "meta_ephemeris_type": 0,
        "meta_classification_type": "U",
        "meta_norad_cat_id": 19070,
        "meta_element_set_no": 999,
        "meta_rev_at_epoch": 82341,
        "meta_bstar": 0.00020498,
        "meta_mean_motion_dot": 1.11e-06,
        "meta_mean_motion_ddot": 0,
        "tle_line1": "1 19070U 88033A   25353.37204396  .00000111  00000+0  20498-3 0  9999",
        "tle_line2": "2 19070  90.3206  16.5981 0190075 161.5050 211.5355 13.27788274823418"
      },
      "geometry": {
        "type": "Point",
        "coordinates": [
          -163.85869450476267,
          -55.94670832945128
        ]
      }
    }
  ]
}